[{"OBJECT_NAME":"HELIOS 1B","OBJECT_ID":"1999-064A","EPOCH":"2026-04-13T05:11:06.304416","MEAN_MOTION":14.8783327,"ECCENTRICITY":9.571e-5,"INCLINATION":98.166,"RA_OF_ASC_NODE":6.4693,"ARG_OF_PERICENTER":37.3433,"MEAN_ANOMALY":322.7849,"EPHEMERIS_TYPE":0,"CLASSIFICATION_TYPE":"U","NORAD_CAT_ID":25977,"ELEMENT_SET_NO":999,"REV_AT_EPOCH":69039,"BSTAR":0.00011669508,"MEAN_MOTION_DOT":1.008e-5,"MEAN_MOTION_DDOT":0},{"OBJECT_NAME":"TERRA","OBJECT_ID":"1999-068A","EPOCH":"2026-04-13T05:28:21.194112","MEAN_MOTION":14.61051928,"ECCENTRICITY":0.00036152,"INCLINATION":97.9523,"RA_OF_ASC_NODE":155.3307,"ARG_OF_PERICENTER":81.7033,"MEAN_ANOMALY":318.5443,"EPHEMERIS_TYPE":0,"CLASSIFICATION_TYPE":"U","NORAD_CAT_ID":25994,"ELEMENT_SET_NO":999,"REV_AT_EPOCH":40012,"BSTAR":6.2511824e-5,"MEAN_MOTION_DOT":2.63e-6,"MEAN_MOTION_DDOT":0},{"OBJECT_NAME":"SL-16 R/B","OBJECT_ID":"2000-006B","EPOCH":"2026-04-13T04:59:03.002496","MEAN_MOTION":14.15829948,"ECCENTRICITY":0.00147897,"INCLINATION":71.0046,"RA_OF_ASC_NODE":25.2556,"ARG_OF_PERICENTER":134.9632,"MEAN_ANOMALY":225.2693,"EPHEMERIS_TYPE":0,"CLASSIFICATION_TYPE":"U","NORAD_CAT_ID":26070,"ELEMENT_SET_NO":999,"REV_AT_EPOCH":35344,"BSTAR":-0.00010727494,"MEAN_MOTION_DOT":-2.59e-6,"MEAN_MOTION_DDOT":0},{"OBJECT_NAME":"TITAN 4B R/B","OBJECT_ID":"2000-047B","EPOCH":"2026-04-13T06:42:29.427264","MEAN_MOTION":15.09859311,"ECCENTRICITY":0.0041199,"INCLINATION":67.9871,"RA_OF_ASC_NODE":303.2232,"ARG_OF_PERICENTER":355.4086,"MEAN_ANOMALY":4.6679,"EPHEMERIS_TYPE":0,"CLASSIFICATION_TYPE":"U","NORAD_CAT_ID":26474,"ELEMENT_SET_NO":999,"REV_AT_EPOCH":39813,"BSTAR":0.00012492747,"MEAN_MOTION_DOT":1.927e-5,"MEAN_MOTION_DDOT":0},{"OBJECT_NAME":"ENVISAT","OBJECT_ID":"2002-009A","EPOCH":"2026-04-13T07:48:44.615232","MEAN_MOTION":14.39049177,"ECCENTRICITY":0.00011622,"INCLINATION":98.3781,"RA_OF_ASC_NODE":56.1107,"ARG_OF_PERICENTER":83.6773,"MEAN_ANOMALY":68.5208,"EPHEMERIS_TYPE":0,"CLASSIFICATION_TYPE":"U","NORAD_CAT_ID":27386,"ELEMENT_SET_NO":999,"REV_AT_EPOCH":26415,"BSTAR":3.2744137e-5,"MEAN_MOTION_DOT":5.8e-7,"MEAN_MOTION_DDOT":0},{"OBJECT_NAME":"IDEFIX & ARIANE 42P R/B","OBJECT_ID":"2002-021B","EPOCH":"2026-04-13T05:53:55.131072","MEAN_MOTION":14.31050097,"ECCENTRICITY":0.00129865,"INCLINATION":98.5906,"RA_OF_ASC_NODE":41.4476,"ARG_OF_PERICENTER":85.8082,"MEAN_ANOMALY":274.4585,"EPHEMERIS_TYPE":0,"CLASSIFICATION_TYPE":"U","NORAD_CAT_ID":27422,"ELEMENT_SET_NO":999,"REV_AT_EPOCH":24896,"BSTAR":7.4924693e-5,"MEAN_MOTION_DOT":1.54e-6,"MEAN_MOTION_DDOT":0},{"OBJECT_NAME":"AQUA","OBJECT_ID":"2002-022A","EPOCH":"2026-04-13T06:08:23.099424","MEAN_MOTION":14.62056821,"ECCENTRICITY":0.00017301,"INCLINATION":98.4228,"RA_OF_ASC_NODE":71.266,"ARG_OF_PERICENTER":108.9713,"MEAN_ANOMALY":2.3826,"EPHEMERIS_TYPE":0,"CLASSIFICATION_TYPE":"U","NORAD_CAT_ID":27424,"ELEMENT_SET_NO":999,"REV_AT_EPOCH":27378,"BSTAR":0.00012725004,"MEAN_MOTION_DOT":5.89e-6,"MEAN_MOTION_DDOT":0},{"OBJECT_NAME":"CZ-4B R/B","OBJECT_ID":"2002-024C","EPOCH":"2026-04-13T02:06:25.921728","MEAN_MOTION":14.14553948,"ECCENTRICITY":0.00490626,"INCLINATION":98.8768,"RA_OF_ASC_NODE":156.3094,"ARG_OF_PERICENTER":285.5966,"MEAN_ANOMALY":97.0762,"EPHEMERIS_TYPE":0,"CLASSIFICATION_TYPE":"U","NORAD_CAT_ID":27432,"ELEMENT_SET_NO":999,"REV_AT_EPOCH":23410,"BSTAR":3.0169943e-5,"MEAN_MOTION_DOT":1.4e-7,"MEAN_MOTION_DDOT":0},{"OBJECT_NAME":"MIDORI II (ADEOS-II)","OBJECT_ID":"2002-056A","EPOCH":"2026-04-13T04:13:01.431264","MEAN_MOTION":14.29312102,"ECCENTRICITY":1.481e-5,"INCLINATION":98.7825,"RA_OF_ASC_NODE":61.905,"ARG_OF_PERICENTER":127.126,"MEAN_ANOMALY":232.9935,"EPHEMERIS_TYPE":0,"CLASSIFICATION_TYPE":"U","NORAD_CAT_ID":27597,"ELEMENT_SET_NO":999,"REV_AT_EPOCH":21522,"BSTAR":9.617351e-5,"MEAN_MOTION_DOT":1.99e-6,"MEAN_MOTION_DDOT":0},{"OBJECT_NAME":"H-2A R/B","OBJECT_ID":"2002-056E","EPOCH":"2026-04-13T04:07:46.744320","MEAN_MOTION":14.33786062,"ECCENTRICITY":0.00713103,"INCLINATION":98.3258,"RA_OF_ASC_NODE":62.2378,"ARG_OF_PERICENTER":59.3732,"MEAN_ANOMALY":311.6709,"EPHEMERIS_TYPE":0,"CLASSIFICATION_TYPE":"U","NORAD_CAT_ID":27601,"ELEMENT_SET_NO":999,"REV_AT_EPOCH":21905,"BSTAR":9.1578399e-5,"MEAN_MOTION_DOT":2.21e-6,"MEAN_MOTION_DDOT":0},{"OBJECT_NAME":"CZ-4B R/B","OBJECT_ID":"2003-049C","EPOCH":"2026-04-13T05:57:49.722624","MEAN_MOTION":14.55051593,"ECCENTRICITY":0.00490875,"INCLINATION":98.6899,"RA_OF_ASC_NODE":99.5166,"ARG_OF_PERICENTER":125.4615,"MEAN_ANOMALY":235.1177,"EPHEMERIS_TYPE":0,"CLASSIFICATION_TYPE":"U","NORAD_CAT_ID":28059,"ELEMENT_SET_NO":999,"REV_AT_EPOCH":19162,"BSTAR":6.6511681e-5,"MEAN_MOTION_DOT":2.4e-6,"MEAN_MOTION_DDOT":0},{"OBJECT_NAME":"CZ-2C R/B","OBJECT_ID":"2004-012C","EPOCH":"2026-04-13T03:55:31.221984","MEAN_MOTION":15.68940633,"ECCENTRICITY":0.00139693,"INCLINATION":97.7154,"RA_OF_ASC_NODE":171.8246,"ARG_OF_PERICENTER":178.5919,"MEAN_ANOMALY":181.5384,"EPHEMERIS_TYPE":0,"CLASSIFICATION_TYPE":"U","NORAD_CAT_ID":28222,"ELEMENT_SET_NO":999,"REV_AT_EPOCH":20967,"BSTAR":0.00038068291,"MEAN_MOTION_DOT":0.00043993,"MEAN_MOTION_DDOT":0},{"OBJECT_NAME":"SL-16 R/B","OBJECT_ID":"2004-021B","EPOCH":"2026-04-13T05:56:32.012736","MEAN_MOTION":14.14605135,"ECCENTRICITY":0.00061092,"INCLINATION":71.0007,"RA_OF_ASC_NODE":159.9732,"ARG_OF_PERICENTER":325.0769,"MEAN_ANOMALY":34.9952,"EPHEMERIS_TYPE":0,"CLASSIFICATION_TYPE":"U","NORAD_CAT_ID":28353,"ELEMENT_SET_NO":999,"REV_AT_EPOCH":12772,"BSTAR":6.4896889e-5,"MEAN_MOTION_DOT":7.7e-7,"MEAN_MOTION_DDOT":0},{"OBJECT_NAME":"CZ-4B R/B","OBJECT_ID":"2004-035C","EPOCH":"2026-04-13T01:30:33.803136","MEAN_MOTION":15.29672869,"ECCENTRICITY":0.00310323,"INCLINATION":97.3446,"RA_OF_ASC_NODE":136.8972,"ARG_OF_PERICENTER":203.4937,"MEAN_ANOMALY":156.4888,"EPHEMERIS_TYPE":0,"CLASSIFICATION_TYPE":"U","NORAD_CAT_ID":28415,"ELEMENT_SET_NO":999,"REV_AT_EPOCH":18516,"BSTAR":0.00016256719,"MEAN_MOTION_DOT":4.663e-5,"MEAN_MOTION_DDOT":0},{"OBJECT_NAME":"CZ-2C R/B","OBJECT_ID":"2004-046B","EPOCH":"2026-04-13T04:39:09.301824","MEAN_MOTION":14.27006248,"ECCENTRICITY":0.01404656,"INCLINATION":98.1973,"RA_OF_ASC_NODE":16.0273,"ARG_OF_PERICENTER":53.1586,"MEAN_ANOMALY":308.2383,"EPHEMERIS_TYPE":0,"CLASSIFICATION_TYPE":"U","NORAD_CAT_ID":28480,"ELEMENT_SET_NO":999,"REV_AT_EPOCH":11342,"BSTAR":5.3727343e-5,"MEAN_MOTION_DOT":1.05e-6,"MEAN_MOTION_DDOT":0},{"OBJECT_NAME":"ARIANE 5 R/B","OBJECT_ID":"2004-049H","EPOCH":"2026-04-13T04:36:26.578656","MEAN_MOTION":14.85334402,"ECCENTRICITY":0.00829737,"INCLINATION":98.2676,"RA_OF_ASC_NODE":272.9529,"ARG_OF_PERICENTER":238.8046,"MEAN_ANOMALY":120.5016,"EPHEMERIS_TYPE":0,"CLASSIFICATION_TYPE":"U","NORAD_CAT_ID":28499,"ELEMENT_SET_NO":999,"REV_AT_EPOCH":15091,"BSTAR":7.5687475e-5,"MEAN_MOTION_DOT":6.26e-6,"MEAN_MOTION_DDOT":0},{"OBJECT_NAME":"CZ-2D R/B","OBJECT_ID":"2005-024B","EPOCH":"2026-04-13T07:23:34.185984","MEAN_MOTION":15.63466054,"ECCENTRICITY":0.00027735,"INCLINATION":97.356,"RA_OF_ASC_NODE":119.8047,"ARG_OF_PERICENTER":214.9733,"MEAN_ANOMALY":145.1344,"EPHEMERIS_TYPE":0,"CLASSIFICATION_TYPE":"U","NORAD_CAT_ID":28738,"ELEMENT_SET_NO":999,"REV_AT_EPOCH":14518,"BSTAR":0.0003098359,"MEAN_MOTION_DOT":0.00028541,"MEAN_MOTION_DDOT":0}]
