TERRA
1 25994U 26103.22802083  2.63000-6 6.25118-5 0 0                     
2 25994  97.9523 155.3307 0003615  81.7033 318.5443 14.61051928      
AQUA
1 27424U 26103.25582176  5.89000-6 1.27250-4 0 0                     
2 27424  98.4228  71.2660 0001730 108.9713   2.3826 14.62056821      
HELIOS 1B
1 25977U 26103.21604167  1.00800-5 1.16695-4 0 0                     
2 25977  98.1660   6.4693 0000957  37.3433 322.7849 14.87833270      
SL-16 R/B
1 26070U 26103.20767361  2.59000-6 1.07275-4 0 0                     
2 26070  71.0046  25.2556 0014789 134.9632 225.2693 14.15829948      
TITAN 4B R/B
1 26474U 26103.27950231  1.92700-5 1.24927-4 0 0                     
2 26474  67.9871 303.2232 0041199 355.4086   4.6679 15.09859311      
ENVISAT
1 27386U 26103.32550926  5.80000-7 3.27441-5 0 0                     
2 27386  98.3781  56.1107 0001162  83.6773  68.5208 14.39049177      
IDEFIX & ARIANE 42P R/B
1 27422U 26103.24577546  1.54000-6 7.49247-5 0 0                     
2 27422  98.5906  41.4476 0012986  85.8082 274.4585 14.31050097      
CZ-4B R/B
1 27432U 26103.08778935  1.40000-7 3.01699-5 0 0                     
2 27432  98.8768 156.3094 0049062 285.5966  97.0762 14.14553948      
MIDORI II (ADEOS-II)
1 27597U 26103.17570602  1.99000-6 9.61735-5 0 0                     
2 27597  98.7825  61.9050 0000148 127.1260 232.9935 14.29312102      
H-2A R/B
1 27601U 26103.17206019  2.21000-6 9.15784-5 0 0                     
2 27601  98.3258  62.2378 0071310  59.3732 311.6709 14.33786062      
CZ-4B R/B
1 28059U 26103.24848380  2.40000-6 6.65117-5 0 0                     
2 28059  98.6899  99.5166 0049087 125.4615 235.1177 14.55051593      
CZ-2C R/B
1 28222U 26103.16355324  4.39930-4 3.80683-4 0 0                     
2 28222  97.7154 171.8246 0013969 178.5919 181.5384 15.68940633      
SL-16 R/B
1 28353U 26103.24759259  7.70000-7 6.48969-5 0 0                     
2 28353  71.0007 159.9732 0006109 325.0769  34.9952 14.14605135      
CZ-4B R/B
1 28415U 26103.06288194  4.66300-5 1.62567-4 0 0                     
2 28415  97.3446 136.8972 0031032 203.4937 156.4888 15.29672869      
CZ-2C R/B
1 28480U 26103.19385417  1.05000-6 5.37273-5 0 0                     
2 28480  98.1973  16.0273 0140465  53.1586 308.2383 14.27006248      
ARIANE 5 R/B
1 28499U 26103.19196759  6.26000-6 7.56875-5 0 0                     
2 28499  98.2676 272.9529 0082973 238.8046 120.5016 14.85334402      
CZ-2D R/B
1 28738U 26103.30803241  2.85410-4 3.09836-4 0 0                     
2 28738  97.3560 119.8047 0002773 214.9733 145.1344 15.63466054      
